{
  "type": "FeatureCollection",
  "features": [
    {
      "type": "Feature",
      "properties": {
        "norad_id": 37781,
        "name": "HAIYANG-2A",
        "group": "resource",
        "lat": -69.19483519012503,
        "lon": 154.24732635350225,
        "alt_km": 976.4046878924382,
        "timestamp": "2025-12-25T03:55:55.963090+00:00",
        "meta_object_name": "HAIYANG-2A",
        "meta_object_id": "2011-043A",
        "meta_epoch": "2025-12-24T21:29:33.565632",
        "meta_mean_motion": 13.78836366,
        "meta_eccentricity": 0.0001596,
        "meta_inclination": 99.3377,
        "meta_ra_of_asc_node": 359.6424,
        "meta_arg_of_pericenter": 67.676,
        "meta_mean_anomaly": 292.4561,
        "meta_ephemeris_type": 0,
        "meta_classification_type": "U",
        "meta_norad_cat_id": 37781,
        "meta_element_set_no": 999,
        "meta_rev_at_epoch": 72266,
        "meta_bstar": 5.1281e-05,
        "meta_mean_motion_dot": 8e-08,
        "meta_mean_motion_ddot": 0,
        "tle_line1": "1 37781U 11043A   25358.89552738  .00000008  00000+0  51281-4 0  9993",
        "tle_line2": "2 37781  99.3377 359.6424 0001596  67.6760 292.4561 13.78836366722665"
      },
      "geometry": {
        "type": "Point",
        "coordinates": [
          154.24732635350225,
          -69.19483519012503
        ]
      }
    },
    {
      "type": "Feature",
      "properties": {
        "norad_id": 37791,
        "name": "RASAT",
        "group": "resource",
        "lat": 25.3459481731363,
        "lon": 84.38614329225041,
        "alt_km": 651.9088246959363,
        "timestamp": "2025-12-25T03:55:55.963101+00:00",
        "meta_object_name": "RASAT",
        "meta_object_id": "2011-044D",
        "meta_epoch": "2025-12-24T20:20:25.588896",
        "meta_mean_motion": 14.67925319,
        "meta_eccentricity": 0.0021315,
        "meta_inclination": 98.0644,
        "meta_ra_of_asc_node": 87.9254,
        "meta_arg_of_pericenter": 28.4371,
        "meta_mean_anomaly": 126.6712,
        "meta_ephemeris_type": 0,
        "meta_classification_type": "U",
        "meta_norad_cat_id": 37791,
        "meta_element_set_no": 999,
        "meta_rev_at_epoch": 76760,
        "meta_bstar": 0.00011876,
        "meta_mean_motion_dot": 6.33e-06,
        "meta_mean_motion_ddot": 0,
        "tle_line1": "1 37791U 11044D   25358.84751839  .00000633  00000+0  11876-3 0  9992",
        "tle_line2": "2 37791  98.0644  87.9254 0021315  28.4371 126.6712 14.67925319767600"
      },
      "geometry": {
        "type": "Point",
        "coordinates": [
          84.38614329225041,
          25.3459481731363
        ]
      }
    },
    {
      "type": "Feature",
      "properties": {
        "norad_id": 37841,
        "name": "SRMSAT",
        "group": "resource",
        "lat": -5.61214373497818,
        "lon": 17.064285414969333,
        "alt_km": 854.9397371728192,
        "timestamp": "2025-12-25T03:55:55.963111+00:00",
        "meta_object_name": "SRMSAT",
        "meta_object_id": "2011-058D",
        "meta_epoch": "2025-12-24T18:34:49.623744",
        "meta_mean_motion": 14.11515378,
        "meta_eccentricity": 0.0011994,
        "meta_inclination": 19.973,
        "meta_ra_of_asc_node": 35.1176,
        "meta_arg_of_pericenter": 85.055,
        "meta_mean_anomaly": 74.1634,
        "meta_ephemeris_type": 0,
        "meta_classification_type": "U",
        "meta_norad_cat_id": 37841,
        "meta_element_set_no": 999,
        "meta_rev_at_epoch": 73314,
        "meta_bstar": 8.7141e-05,
        "meta_mean_motion_dot": 4.25e-06,
        "meta_mean_motion_ddot": 0,
        "tle_line1": "1 37841U 11058D   25358.77418546  .00000425  00000+0  87141-4 0  9998",
        "tle_line2": "2 37841  19.9730  35.1176 0011994  85.0550  74.1634 14.11515378733143"
      },
      "geometry": {
        "type": "Point",
        "coordinates": [
          17.064285414969333,
          -5.61214373497818
        ]
      }
    },
    {
      "type": "Feature",
      "properties": {
        "norad_id": 38012,
        "name": "PLEIADES 1A",
        "group": "resource",
        "lat": 55.72703352847309,
        "lon": -96.07331898084334,
        "alt_km": 691.9688808860028,
        "timestamp": "2025-12-25T03:55:55.963122+00:00",
        "meta_object_name": "PLEIADES 1A",
        "meta_object_id": "2011-076F",
        "meta_epoch": "2025-12-24T21:04:50.082816",
        "meta_mean_motion": 14.58572157,
        "meta_eccentricity": 0.0001088,
        "meta_inclination": 98.1808,
        "meta_ra_of_asc_node": 71.459,
        "meta_arg_of_pericenter": 74.5342,
        "meta_mean_anomaly": 350.6418,
        "meta_ephemeris_type": 0,
        "meta_classification_type": "U",
        "meta_norad_cat_id": 38012,
        "meta_element_set_no": 999,
        "meta_rev_at_epoch": 74658,
        "meta_bstar": 0.00010251,
        "meta_mean_motion_dot": 4.31e-06,
        "meta_mean_motion_ddot": 0,
        "tle_line1": "1 38012U 11076F   25358.87835744  .00000431  00000+0  10251-3 0  9997",
        "tle_line2": "2 38012  98.1808  71.4590 0001088  74.5342 350.6418 14.58572157746580"
      },
      "geometry": {
        "type": "Point",
        "coordinates": [
          -96.07331898084334,
          55.72703352847309
        ]
      }
    },
    {
      "type": "Feature",
      "properties": {
        "norad_id": 38038,
        "name": "ZIYUAN 1-02C (ZY 1-02C)",
        "group": "resource",
        "lat": -13.639242750152366,
        "lon": -117.11494863264781,
        "alt_km": 769.3697649663791,
        "timestamp": "2025-12-25T03:55:55.963132+00:00",
        "meta_object_name": "ZIYUAN 1-02C (ZY 1-02C)",
        "meta_object_id": "2011-079A",
        "meta_epoch": "2025-12-24T20:57:12.066912",
        "meta_mean_motion": 14.38025041,
        "meta_eccentricity": 0.0007548,
        "meta_inclination": 98.4315,
        "meta_ra_of_asc_node": 64.6623,
        "meta_arg_of_pericenter": 106.6418,
        "meta_mean_anomaly": 22.4481,
        "meta_ephemeris_type": 0,
        "meta_classification_type": "U",
        "meta_norad_cat_id": 38038,
        "meta_element_set_no": 999,
        "meta_rev_at_epoch": 73415,
        "meta_bstar": 0.00017349,
        "meta_mean_motion_dot": 4.82e-06,
        "meta_mean_motion_ddot": 0,
        "tle_line1": "1 38038U 11079A   25358.87305633  .00000482  00000+0  17349-3 0  9998",
        "tle_line2": "2 38038  98.4315  64.6623 0007548 106.6418  22.4481 14.38025041734150"
      },
      "geometry": {
        "type": "Point",
        "coordinates": [
          -117.11494863264781,
          -13.639242750152366
        ]
      }
    },
    {
      "type": "Feature",
      "properties": {
        "norad_id": 38338,
        "name": "ARIRANG-3 (KOMPSAT-3)",
        "group": "resource",
        "lat": 17.969082538785184,
        "lon": 136.57295680748075,
        "alt_km": 690.2259276214891,
        "timestamp": "2025-12-25T03:55:55.963143+00:00",
        "meta_object_name": "ARIRANG-3 (KOMPSAT-3)",
        "meta_object_id": "2012-025B",
        "meta_epoch": "2025-12-24T20:37:22.353600",
        "meta_mean_motion": 14.6172783,
        "meta_eccentricity": 0.0004708,
        "meta_inclination": 98.334,
        "meta_ra_of_asc_node": 313.5411,
        "meta_arg_of_pericenter": 295.179,
        "meta_mean_anomaly": 64.8922,
        "meta_ephemeris_type": 0,
        "meta_classification_type": "U",
        "meta_norad_cat_id": 38338,
        "meta_element_set_no": 999,
        "meta_rev_at_epoch": 72587,
        "meta_bstar": 0.0001234,
        "meta_mean_motion_dot": 5.66e-06,
        "meta_mean_motion_ddot": 0,
        "tle_line1": "1 38338U 12025B   25358.85928650  .00000566  00000+0  12340-3 0  9990",
        "tle_line2": "2 38338  98.3340 313.5411 0004708 295.1790  64.8922 14.61727830725873"
      },
      "geometry": {
        "type": "Point",
        "coordinates": [
          136.57295680748075,
          17.969082538785184
        ]
      }
    },
    {
      "type": "Feature",
      "properties": {
        "norad_id": 38709,
        "name": "EXACTVIEW-1 (ADS-1B)",
        "group": "resource",
        "lat": -43.37031168370073,
        "lon": 116.38956578211283,
        "alt_km": 808.1053034767174,
        "timestamp": "2025-12-25T03:55:55.963154+00:00",
        "meta_object_name": "EXACTVIEW-1 (ADS-1B)",
        "meta_object_id": "2012-039C",
        "meta_epoch": "2025-12-24T19:42:42.645024",
        "meta_mean_motion": 14.24912629,
        "meta_eccentricity": 0.0010143,
        "meta_inclination": 98.9638,
        "meta_ra_of_asc_node": 107.4649,
        "meta_arg_of_pericenter": 317.9424,
        "meta_mean_anomaly": 42.0975,
        "meta_ephemeris_type": 0,
        "meta_classification_type": "U",
        "meta_norad_cat_id": 38709,
        "meta_element_set_no": 999,
        "meta_rev_at_epoch": 69787,
        "meta_bstar": 8.4451e-05,
        "meta_mean_motion_dot": 1.51e-06,
        "meta_mean_motion_ddot": 0,
        "tle_line1": "1 38709U 12039C   25358.82132691  .00000151  00000+0  84451-4 0  9999",
        "tle_line2": "2 38709  98.9638 107.4649 0010143 317.9424  42.0975 14.24912629697876"
      },
      "geometry": {
        "type": "Point",
        "coordinates": [
          116.38956578211283,
          -43.37031168370073
        ]
      }
    }
  ]
}